{
  "type": "FeatureCollection",
  "features": [
    {
      "type": "Feature",
      "properties": {
        "norad_id": 37238,
        "name": "INTELSAT 17 (IS-17)",
        "group": "intelsat",
        "lat": 0.01647674014541414,
        "lon": 98.49049321241206,
        "alt_km": 35796.520213385855,
        "timestamp": "2025-12-13T20:38:50.662963+00:00",
        "meta_object_name": "INTELSAT 17 (IS-17)",
        "meta_object_id": "2010-065B",
        "meta_epoch": "2025-12-13T05:12:11.670336",
        "meta_mean_motion": 1.00271489,
        "meta_eccentricity": 0.00025381,
        "meta_inclination": 0.006,
        "meta_ra_of_asc_node": 312.8754,
        "meta_arg_of_pericenter": 310.8055,
        "meta_mean_anomaly": 322.5292,
        "meta_ephemeris_type": 0,
        "meta_classification_type": "U",
        "meta_norad_cat_id": 37238,
        "meta_element_set_no": 999,
        "meta_rev_at_epoch": 5138,
        "meta_bstar": 0,
        "meta_mean_motion_dot": 1.2e-07,
        "meta_mean_motion_ddot": 0,
        "tle_line1": "1 37238U 10065B   25347.21680174  .00000012  00000+0  00000+0 0  9996",
        "tle_line2": "2 37238   0.0060 312.8754 0002538 310.8055 322.5292  1.00271489 51385"
      },
      "geometry": {
        "type": "Point",
        "coordinates": [
          98.49049321241206,
          0.01647674014541414
        ]
      }
    },
    {
      "type": "Feature",
      "properties": {
        "norad_id": 37392,
        "name": "INTELSAT 28 (IS-28)",
        "group": "intelsat",
        "lat": -1.3121322598530842,
        "lon": 0.8555881168583642,
        "alt_km": 35787.148186399645,
        "timestamp": "2025-12-13T20:38:50.662975+00:00",
        "meta_object_name": "INTELSAT 28 (IS-28)",
        "meta_object_id": "2011-016A",
        "meta_epoch": "2025-12-13T04:44:14.347392",
        "meta_mean_motion": 1.00273103,
        "meta_eccentricity": 0.00037618,
        "meta_inclination": 1.326,
        "meta_ra_of_asc_node": 85.0489,
        "meta_arg_of_pericenter": 181.4899,
        "meta_mean_anomaly": 214.9708,
        "meta_ephemeris_type": 0,
        "meta_classification_type": "U",
        "meta_norad_cat_id": 37392,
        "meta_element_set_no": 999,
        "meta_rev_at_epoch": 5142,
        "meta_bstar": 0,
        "meta_mean_motion_dot": -2.11e-06,
        "meta_mean_motion_ddot": 0,
        "tle_line1": "1 37392U 11016A   25347.19738828 -.00000211  00000+0  00000+0 0  9993",
        "tle_line2": "2 37392   1.3260  85.0489 0003761 181.4899 214.9708  1.00273103 51429"
      },
      "geometry": {
        "type": "Point",
        "coordinates": [
          0.8555881168583642,
          -1.3121322598530842
        ]
      }
    },
    {
      "type": "Feature",
      "properties": {
        "norad_id": 37834,
        "name": "INTELSAT 18 (IS-18)",
        "group": "intelsat",
        "lat": -0.03230258378362795,
        "lon": -147.5346962225015,
        "alt_km": 35782.01079638395,
        "timestamp": "2025-12-13T20:38:50.662986+00:00",
        "meta_object_name": "INTELSAT 18 (IS-18)",
        "meta_object_id": "2011-056A",
        "meta_epoch": "2025-12-13T06:23:59.335872",
        "meta_mean_motion": 1.00272045,
        "meta_eccentricity": 0.00018512,
        "meta_inclination": 0.0159,
        "meta_ra_of_asc_node": 316.9679,
        "meta_arg_of_pericenter": 315.2631,
        "meta_mean_anomaly": 85.9613,
        "meta_ephemeris_type": 0,
        "meta_classification_type": "U",
        "meta_norad_cat_id": 37834,
        "meta_element_set_no": 999,
        "meta_rev_at_epoch": 5194,
        "meta_bstar": 0,
        "meta_mean_motion_dot": 6.7e-07,
        "meta_mean_motion_ddot": 0,
        "tle_line1": "1 37834U 11056A   25347.26665898  .00000067  00000+0  00000+0 0  9990",
        "tle_line2": "2 37834   0.0159 316.9679 0001851 315.2631  85.9613  1.00272045 51941"
      },
      "geometry": {
        "type": "Point",
        "coordinates": [
          -147.5346962225015,
          -0.03230258378362795
        ]
      }
    },
    {
      "type": "Feature",
      "properties": {
        "norad_id": 38098,
        "name": "INTELSAT 22 (IS-22)",
        "group": "intelsat",
        "lat": 0.039689617110570695,
        "lon": 104.58340247013048,
        "alt_km": 35793.78128960953,
        "timestamp": "2025-12-13T20:38:50.662999+00:00",
        "meta_object_name": "INTELSAT 22 (IS-22)",
        "meta_object_id": "2012-011A",
        "meta_epoch": "2025-12-13T01:16:38.512128",
        "meta_mean_motion": 1.00270429,
        "meta_eccentricity": 0.00017393,
        "meta_inclination": 0.0305,
        "meta_ra_of_asc_node": 39.8655,
        "meta_arg_of_pericenter": 240.9226,
        "meta_mean_anomaly": 252.4626,
        "meta_ephemeris_type": 0,
        "meta_classification_type": "U",
        "meta_norad_cat_id": 38098,
        "meta_element_set_no": 999,
        "meta_rev_at_epoch": 532,
        "meta_bstar": 0,
        "meta_mean_motion_dot": 0,
        "meta_mean_motion_ddot": 0,
        "tle_line1": "1 38098U 12011A   25347.05322352  .00000000  00000+0  00000+0 0  9994",
        "tle_line2": "2 38098   0.0305  39.8655 0001739 240.9226 252.4626  1.00270429  5321"
      },
      "geometry": {
        "type": "Point",
        "coordinates": [
          104.58340247013048,
          0.039689617110570695
        ]
      }
    },
    {
      "type": "Feature",
      "properties": {
        "norad_id": 38356,
        "name": "INTELSAT 19 (IS-19)",
        "group": "intelsat",
        "lat": -0.011676265635743173,
        "lon": -161.5338450712613,
        "alt_km": 35781.5469369487,
        "timestamp": "2025-12-13T20:38:50.663011+00:00",
        "meta_object_name": "INTELSAT 19 (IS-19)",
        "meta_object_id": "2012-030A",
        "meta_epoch": "2025-12-13T07:23:38.817024",
        "meta_mean_motion": 1.0027257,
        "meta_eccentricity": 0.00033834,
        "meta_inclination": 0.0102,
        "meta_ra_of_asc_node": 7.8717,
        "meta_arg_of_pericenter": 263.1997,
        "meta_mean_anomaly": 88.0949,
        "meta_ephemeris_type": 0,
        "meta_classification_type": "U",
        "meta_norad_cat_id": 38356,
        "meta_element_set_no": 999,
        "meta_rev_at_epoch": 4858,
        "meta_bstar": 0,
        "meta_mean_motion_dot": -4.2e-07,
        "meta_mean_motion_ddot": 0,
        "tle_line1": "1 38356U 12030A   25347.30808816 -.00000042  00000+0  00000+0 0  9991",
        "tle_line2": "2 38356   0.0102   7.8717 0003383 263.1997  88.0949  1.00272570 48581"
      },
      "geometry": {
        "type": "Point",
        "coordinates": [
          -161.5338450712613,
          -0.011676265635743173
        ]
      }
    },
    {
      "type": "Feature",
      "properties": {
        "norad_id": 38740,
        "name": "INTELSAT 20 (IS-20)",
        "group": "intelsat",
        "lat": 0.002423211110620752,
        "lon": 100.95614878621117,
        "alt_km": 35784.74317661542,
        "timestamp": "2025-12-13T20:38:50.663023+00:00",
        "meta_object_name": "INTELSAT 20 (IS-20)",
        "meta_object_id": "2012-043A",
        "meta_epoch": "2025-12-13T03:30:06.448608",
        "meta_mean_motion": 1.00270605,
        "meta_eccentricity": 0.00031849,
        "meta_inclination": 0.0098,
        "meta_ra_of_asc_node": 88.4617,
        "meta_arg_of_pericenter": 95.2834,
        "meta_mean_anomaly": 19.3699,
        "meta_ephemeris_type": 0,
        "meta_classification_type": "U",
        "meta_norad_cat_id": 38740,
        "meta_element_set_no": 999,
        "meta_rev_at_epoch": 4888,
        "meta_bstar": 0,
        "meta_mean_motion_dot": -1.1e-07,
        "meta_mean_motion_ddot": 0,
        "tle_line1": "1 38740U 12043A   25347.14590797 -.00000011  00000+0  00000+0 0  9996",
        "tle_line2": "2 38740   0.0098  88.4617 0003184  95.2834  19.3699  1.00270605 48888"
      },
      "geometry": {
        "type": "Point",
        "coordinates": [
          100.95614878621117,
          0.002423211110620752
        ]
      }
    },
    {
      "type": "Feature",
      "properties": {
        "norad_id": 38749,
        "name": "INTELSAT 21 (IS-21)",
        "group": "intelsat",
        "lat": -0.022046342002859497,
        "lon": -25.486020574082854,
        "alt_km": 35784.06718084749,
        "timestamp": "2025-12-13T20:38:50.663035+00:00",
        "meta_object_name": "INTELSAT 21 (IS-21)",
        "meta_object_id": "2012-045A",
        "meta_epoch": "2025-12-13T04:47:38.859648",
        "meta_mean_motion": 1.00272241,
        "meta_eccentricity": 0.00017802,
        "meta_inclination": 0.028,
        "meta_ra_of_asc_node": 71.869,
        "meta_arg_of_pericenter": 187.7631,
        "meta_mean_anomaly": 196.4193,
        "meta_ephemeris_type": 0,
        "meta_classification_type": "U",
        "meta_norad_cat_id": 38749,
        "meta_element_set_no": 999,
        "meta_rev_at_epoch": 4866,
        "meta_bstar": 0,
        "meta_mean_motion_dot": -2.71e-06,
        "meta_mean_motion_ddot": 0,
        "tle_line1": "1 38749U 12045A   25347.19975532 -.00000271  00000+0  00000+0 0  9994",
        "tle_line2": "2 38749   0.0280  71.8690 0001780 187.7631 196.4193  1.00272241 48669"
      },
      "geometry": {
        "type": "Point",
        "coordinates": [
          -25.486020574082854,
          -0.022046342002859497
        ]
      }
    }
  ]
}